OBJECT_NAME,OBJECT_ID,EPOCH,MEAN_MOTION,ECCENTRICITY,INCLINATION,RA_OF_ASC_NODE,ARG_OF_PERICENTER,MEAN_ANOMALY,EPHEMERIS_TYPE,CLASSIFICATION_TYPE,NORAD_CAT_ID,ELEMENT_SET_NO,REV_AT_EPOCH,BSTAR,MEAN_MOTION_DOT,MEAN_MOTION_DDOT
LAOSAT 1,2015-067A,2026-07-07T04:33:38.519424,1.00272872,.0002495,0.0431,193.0609,225.2513,63.7779,0,U,41034,999,3906,0,-.327E-5,0
TELSTAR 12V,2015-068A,2026-07-07T04:22:38.909856,1.00270763,.0002275,0.0170,69.1519,35.9726,230.6923,0,U,41036,999,3882,0,-.104E-5,0
ELEKTRO-L 2,2015-074A,2026-07-06T22:16:47.508096,1.00273429,.0000603,6.7405,70.2816,245.8062,288.4891,0,U,41105,999,3870,0,-.106E-5,0
COSMOS 2513,2015-075A,2026-07-06T10:45:14.631264,1.00272747,.00031339,0.0640,104.6829,338.3003,83.0126,0,U,41121,999,3874,0,-.124E-5,0
EXPRESS-AMU1,2015-082A,2026-07-07T03:50:38.879808,1.00269413,.0002333,0.0228,35.6577,81.1193,262.1062,0,U,41191,999,3846,0,0,0
GAOFEN-4,2015-083A,2026-07-06T19:38:45.176352,1.00272906,.0004256,0.4049,83.8626,118.1427,123.1868,0,U,41194,999,3872,0,-.32E-5,0
BELINTERSAT-1,2016-001A,2026-07-07T03:43:29.388864,1.00271234,.0001813,0.0177,89.4952,340.3536,322.6289,0,U,41238,999,3843,0,.122E-5,0
IRNSS-1E,2016-003A,2026-07-06T20:16:57.966240,1.00269537,.0019195,33.2756,59.4648,178.8904,102.4500,0,U,41241,999,3827,0,-.302E-5,0
EUTELSAT 9B,2016-005A,2026-07-07T01:48:45.258048,1.00275929,.0001155,0.0172,34.0663,76.0069,211.1687,0,U,41310,999,3831,0,.77E-6,0
SES-9,2016-013A,2026-07-07T03:57:38.522880,1.00270590,.0002304,0.0181,321.8662,138.7207,352.2586,0,U,41380,999,3764,0,-.33E-5,0
EUTELSAT 65 WEST A,2016-014A,2026-07-07T01:27:36.213120,1.00272706,.000223,0.0745,307.7921,156.7858,137.1739,0,U,41382,999,3772,0,-.261E-5,0
IRNSS-1F,2016-015A,2026-07-06T22:30:12.291264,1.00277260,.0017394,5.3971,96.3335,183.7124,14.9319,0,U,41384,999,3786,0,.17E-5,0
BEIDOU-2 IGSO-6,2016-021A,2026-06-26T02:38:38.671584,1.00258926,.0057558,60.2385,37.9495,231.0163,137.2672,0,U,41434,999,3757,0,-.145E-5,0
IRNSS-1G,2016-027A,2026-07-06T16:01:32.475936,1.00277498,.0005822,5.2425,97.0252,7.9551,189.6780,0,U,41469,999,3737,0,-.321E-5,0
JCSAT-2B,2016-028A,2026-07-06T21:22:06.252096,1.00270144,.0000965,0.0203,33.3667,74.5515,291.4796,0,U,41471,999,3732,0,-.151E-5,0
THAICOM 8,2016-031A,2026-07-07T03:51:13.648032,1.00271359,.000329,0.0599,37.8302,33.9229,349.6852,0,U,41552,999,3691,0,-.106E-5,0
INTELSAT 31 (IS-31),2016-035A,2026-07-06T06:29:56.251680,1.00270733,.00008295,0.0403,211.4121,55.4380,19.8435,0,U,41581,999,3687,0,-.136E-5,0
BEIDOU-2 G7,2016-037A,2026-07-07T03:57:38.523744,1.00266612,.0006495,1.7663,69.4630,5.8985,19.6618,0,U,41586,999,709,0,-.338E-5,0
ABS-2A (MONGOLSAT-1),2016-038A,2026-07-06T20:27:30.732192,1.00267067,.0001398,0.0189,29.5042,23.1261,253.8007,0,U,41588,999,3690,0,0,0
EUTELSAT 117 WEST B,2016-038B,2026-07-07T02:55:32.456352,1.00276935,.0000252,0.0046,200.2094,211.9365,159.8273,0,U,41589,999,3686,0,.3E-7,0
BRISAT,2016-039A,2026-07-06T23:03:47.782080,1.00269049,.0002043,0.0170,1.1406,107.0671,313.1761,0,U,41591,999,3680,0,0,0
ECHOSTAR 18,2016-039B,2026-07-07T02:47:53.942784,1.00266907,.0001455,0.0024,115.1082,15.0497,135.5389,0,U,41592,999,3682,0,-.267E-5,0
MUOS-5,2016-041A,2026-07-07T02:59:09.608064,1.00272161,.0198999,2.1629,302.0158,260.6113,22.1113,0,U,41622,999,3728,0,-.96E-6,0
TIANTONG-1 1,2016-048A,2026-07-07T02:14:42.769248,1.00272991,.0005222,3.8853,43.5559,54.2570,322.3308,0,U,41725,999,3647,0,-.305E-5,0
JCSAT-16,2016-050A,2026-07-07T04:08:38.650848,1.00269925,.0000983,0.0198,41.5076,73.1913,16.5553,0,U,41729,999,3627,0,-.236E-5,0
USA 270,2016-052A,2026-06-25T15:01:47.554176,0.99500516,.0000668,4.2178,77.0981,157.1810,56.2495,0,U,41744,999,2821,0,-.284E-5,0
USA 271,2016-052B,2026-06-25T18:13:09.824736,0.99833204,.0001955,4.1909,77.1447,290.7679,281.9940,0,U,41745,999,2800,0,-.236E-5,0
INTELSAT 36 (IS-36),2016-053A,2026-07-07T03:48:21.421728,1.00270153,.0002215,0.0094,10.1998,332.1572,68.3588,0,U,41747,999,3615,0,-.9E-7,0
INSAT-3DR,2016-054A,2026-07-07T02:07:20.974944,1.00272313,.0010406,0.0487,89.5096,181.2031,120.1823,0,U,41752,999,3601,0,-.62E-6,0
GSAT-18,2016-060A,2026-07-07T03:49:58.766880,1.00271494,.0005574,0.0135,83.9120,352.7223,339.9633,0,U,41793,999,3572,0,-.62E-6,0
SKY MUSTER 2 (NBN1B),2016-060B,2026-07-06T21:19:29.004096,1.00272385,.0001569,0.0159,330.2222,133.4558,285.8521,0,U,41794,999,3571,0,-.229E-5,0
HIMAWARI-9,2016-064A,2026-07-06T23:01:03.044928,1.00271383,.0002207,0.0138,10.3948,162.3808,238.1863,0,U,41836,999,3540,0,0,0
