LAOSAT 1                
1 41034U 15067A   26188.19002916 -.00000327  00000+0  00000+0 0  9995
2 41034   0.0431 193.0609 0002495 225.2513  63.7779  1.00272872 39066
TELSTAR 12V             
1 41036U 15068A   26188.18239479 -.00000104  00000+0  00000+0 0  9996
2 41036   0.0170  69.1519 0002275  35.9726 230.6923  1.00270763 38825
ELEKTRO-L 2             
1 41105U 15074A   26187.92832764 -.00000106  00000+0  00000+0 0  9999
2 41105   6.7405  70.2816 0000603 245.8062 288.4891  1.00273429 38701
COSMOS 2513             
1 41121U 15075A   26187.44808601 -.00000124  00000+0  00000+0 0  9998
2 41121   0.0640 104.6829 0003133 338.3003  83.0126  1.00272747 38743
EXPRESS-AMU1            
1 41191U 15082A   26188.16017222  .00000000  00000+0  00000+0 0  9996
2 41191   0.0228  35.6577 0002333  81.1193 262.1062  1.00269413 38463
GAOFEN-4                
1 41194U 15083A   26187.81857843 -.00000320  00000+0  00000+0 0  9998
2 41194   0.4049  83.8626 0004256 118.1427 123.1868  1.00272906 38728
BELINTERSAT-1           
1 41238U 16001A   26188.15520126  .00000122  00000+0  00000+0 0  9996
2 41238   0.0177  89.4952 0001813 340.3536 322.6289  1.00271234 38439
IRNSS-1E                
1 41241U 16003A   26187.84511535 -.00000302  00000+0  00000+0 0  9992
2 41241  33.2756  59.4648 0019195 178.8904 102.4500  1.00269537 38273
EUTELSAT 9B             
1 41310U 16005A   26188.07552382  .00000077  00000+0  00000+0 0  9990
2 41310   0.0172  34.0663 0001155  76.0069 211.1687  1.00275929 38319
SES-9                   
1 41380U 16013A   26188.16502920 -.00000330  00000+0  00000+0 0  9992
2 41380   0.0181 321.8662 0002304 138.7207 352.2586  1.00270590 37648
EUTELSAT 65 WEST A      
1 41382U 16014A   26188.06083580 -.00000261  00000+0  00000+0 0  9993
2 41382   0.0745 307.7921 0002230 156.7858 137.1739  1.00272706 37727
IRNSS-1F                
1 41384U 16015A   26187.93764226  .00000170  00000+0  00000+0 0  9992
2 41384   5.3971  96.3335 0017394 183.7124  14.9319  1.00277260 37862
BEIDOU-2 IGSO-6         
1 41434U 16021A   26177.11016981 -.00000145  00000+0  00000+0 0  9995
2 41434  60.2385  37.9495 0057558 231.0163 137.2672  1.00258926 37578
IRNSS-1G                
1 41469U 16027A   26187.66773699 -.00000321  00000+0  00000+0 0  9992
2 41469   5.2425  97.0252 0005822   7.9551 189.6780  1.00277498 37370
JCSAT-2B                
1 41471U 16028A   26187.89035014 -.00000151  00000+0  00000+0 0  9994
2 41471   0.0203  33.3667 0000965  74.5515 291.4796  1.00270144 37321
THAICOM 8               
1 41552U 16031A   26188.16057463 -.00000106  00000+0  00000+0 0  9991
2 41552   0.0599  37.8302 0003290  33.9229 349.6852  1.00271359 36911
INTELSAT 31 (IS-31)     
1 41581U 16035A   26187.27078995 -.00000136  00000+0  00000+0 0  9994
2 41581   0.0403 211.4121 0000829  55.4380  19.8435  1.00270733 36871
BEIDOU-2 G7             
1 41586U 16037A   26188.16502921 -.00000338  00000+0  00000+0 0  9995
2 41586   1.7663  69.4630 0006495   5.8985  19.6618  1.00266612  7097
ABS-2A (MONGOLSAT-1)    
1 41588U 16038A   26187.85243903  .00000000  00000+0  00000+0 0  9990
2 41588   0.0189  29.5042 0001398  23.1261 253.8007  1.00267067 36906
EUTELSAT 117 WEST B     
1 41589U 16038B   26188.12190343  .00000003  00000+0  00000+0 0  9994
2 41589   0.0046 200.2094 0000252 211.9365 159.8273  1.00276935 36863
BRISAT                  
1 41591U 16039A   26187.96096970  .00000000  00000+0  00000+0 0  9997
2 41591   0.0170   1.1406 0002043 107.0671 313.1761  1.00269049 36803
ECHOSTAR 18             
1 41592U 16039B   26188.11659656 -.00000267  00000+0  00000+0 0  9998
2 41592   0.0024 115.1082 0001455  15.0497 135.5389  1.00266907 36822
MUOS-5                  
1 41622U 16041A   26188.12441676 -.00000096  00000+0  00000+0 0  9997
2 41622   2.1629 302.0158 0198999 260.6113  22.1113  1.00272161 37280
TIANTONG-1 1            
1 41725U 16048A   26188.09355057 -.00000305  00000+0  00000+0 0  9994
2 41725   3.8853  43.5559 0005222  54.2570 322.3308  1.00272991 36475
JCSAT-16                
1 41729U 16050A   26188.17266957 -.00000236  00000+0  00000+0 0  9993
2 41729   0.0198  41.5076 0000983  73.1913  16.5553  1.00269925 36277
USA 270                 
1 41744U 16052A   26176.62624484 -.00000284  00000+0  00000+0 0  9995
2 41744   4.2178  77.0981 0000668 157.1810  56.2495  0.99500516 28218
USA 271                 
1 41745U 16052B   26176.75914149 -.00000236  00000+0  00000+0 0  9997
2 41745   4.1909  77.1447 0001955 290.7679 281.9940  0.99833204 28007
INTELSAT 36 (IS-36)     
1 41747U 16053A   26188.15858127 -.00000009  00000+0  00000+0 0  9998
2 41747   0.0094  10.1998 0002215 332.1572  68.3588  1.00270153 36151
INSAT-3DR               
1 41752U 16054A   26188.08843721 -.00000062  00000+0  00000+0 0  9990
2 41752   0.0487  89.5096 0010406 181.2031 120.1823  1.00272313 36010
GSAT-18                 
1 41793U 16060A   26188.15970795 -.00000062  00000+0  00000+0 0  9992
2 41793   0.0135  83.9120 0005574 352.7223 339.9633  1.00271494 35724
SKY MUSTER 2 (NBN1B)    
1 41794U 16060B   26187.88853014 -.00000229  00000+0  00000+0 0  9991
2 41794   0.0159 330.2222 0001569 133.4558 285.8521  1.00272385 35711
HIMAWARI-9              
1 41836U 16064A   26187.95906302  .00000000  00000+0  00000+0 0  9995
2 41836   0.0138  10.3948 0002207 162.3808 238.1863  1.00271383 35408
